NORAD_CAT_ID,OBJECT_NAME,OBJECT_TYPE,EPOCH,MEAN_MOTION,ECCENTRICITY,INCLINATION,RA_OF_ASC_NODE,ARG_OF_PERICENTER,MEAN_ANOMALY,BSTAR,MEAN_MOTION_DOT,MEAN_MOTION_DDOT,TLE_LINE0,TLE_LINE1,TLE_LINE2,SEMIMAJOR_AXIS,PERIOD,APOGEE,PERIGEE,DECAYED
49751.0,STARLINK-3229,PAYLOAD,2022-09-11 23:47:58,15.08846643,0.0001771999999999,53.2177,111.4724,52.452,307.6633,0.00015881,2.241e-05,0.0,0 STARLINK-3229,1 49751U 21115AD  22254.99165250  .00002241  00000-0  15881-3 0  9993,2 49751  53.2177 111.4724 0001772  52.4520 307.6633 15.08846643 43109,6917.86,95.437,540.951,538.499,0.0
49751.0,STARLINK-3229,PAYLOAD,2022-09-12 23:38:46,15.088347400000002,0.0001979,53.2185,107.0117,51.7409,308.3761,7.8093e-05,9.55e-06,0.0,0 STARLINK-3229,1 49751U 21115AD  22255.98526411  .00000955  00000-0  78093-4 0  9998,2 49751  53.2185 107.0117 0001979  51.7409 308.3761 15.08834740 44366,6917.896,95.438,541.131,538.3919999999998,0.0
49751.0,STARLINK-3229,PAYLOAD,2022-09-13 07:35:42,15.08837068,0.0001913,53.2178,105.5261,52.5244,307.5922,6.209e-05,7.000000000000003e-06,0.0,0 STARLINK-3229,1 49751U 21115AD  22256.31646354  .00000700  00000-0  62090-4 0  9993,2 49751  53.2178 105.5261 0001913  52.5244 307.5922 15.08837068 43304,6917.889,95.438,541.078,538.431,0.0
49751.0,STARLINK-3229,PAYLOAD,2022-09-13 20:18:46,15.08851625,0.0001678,53.2175,103.1449,57.9793,302.1362,7.3952e-05,8.89e-06,0.0,0 STARLINK-3229,1 49751U 21115AD  22256.84637210  .00000889  00000-0  73952-4 0  9999,2 49751  53.2175 103.1449 0001678  57.9793 302.1362 15.08851625 44494,6917.845,95.437,540.871,538.549,0.0
49751.0,STARLINK-3229,PAYLOAD,2022-09-14 13:48:01,15.08830986,0.0001831,53.215,99.875,60.7413,299.3762,0.00029252,4.369e-05,0.0,0 STARLINK-3229,1 49751U 21115AD  22257.57501382  .00004369  00000-0  29252-3 0  9990,2 49751  53.2150  99.8750 0001831  60.7413 299.3762 15.08830986 43492,6917.908,95.438,541.04,538.506,0.0
49751.0,STARLINK-3229,PAYLOAD,2022-09-14 23:20:20,15.08841058,0.0001826,53.2153,98.0924,49.4986,310.6165,8.5714e-05,1.076e-05,0.0,0 STARLINK-3229,1 49751U 21115AD  22257.97245698  .00001076  00000-0  85714-4 0  9997,2 49751  53.2153  98.0924 0001826  49.4986 310.6165 15.08841058 43555,6917.877,95.437,541.005,538.479,0.0
49751.0,STARLINK-3229,PAYLOAD,2022-09-15 20:00:20,15.088436800000002,0.0001799,53.2164,94.2255,55.8273,304.2889,2.7367e-05,1.47e-06,0.0,0 STARLINK-3229,1 49751U 21115AD  22258.83357582  .00000147  00000-0  27367-4 0  9997,2 49751  53.2164  94.2255 0001799  55.8273 304.2889 15.08843680 43680,6917.869000000002,95.437,540.979,538.49,0.0
49751.0,STARLINK-3229,PAYLOAD,2022-09-15 21:35:44,15.0884057,0.0001673,53.2162,93.929,52.1951,307.9192,-1.1083e-05,-4.64e-06,0.0,0 STARLINK-3229,1 49751U 21115AD  22258.89981841 -.00000464  00000-0 -11083-4 0  9996,2 49751  53.2162  93.9290 0001673  52.1951 307.9192 15.08840570 44804,6917.879,95.438,540.901,538.586,0.0
49751.0,STARLINK-3229,PAYLOAD,2022-09-16 05:32:39,15.08847153,0.000169,53.2161,92.4422,50.3596,309.7545,7.6266e-05,9.26e-06,0.0,0 STARLINK-3229,1 49751U 21115AD  22259.23101106  .00000926  00000-0  76266-4 0  9998,2 49751  53.2161  92.4422 0001690  50.3596 309.7545 15.08847153 44859,6917.859,95.437,540.893,538.554,0.0
49751.0,STARLINK-3229,PAYLOAD,2022-09-16 13:29:35,15.08842831,0.0002349,53.2147,90.9554,50.5211,309.5989,8.6654e-05,1.091e-05,0.0,0 STARLINK-3229,1 49751U 21115AD  22259.56221462  .00001091  00000-0  86654-4 0  9998,2 49751  53.2147  90.9554 0002349  50.5211 309.5989 15.08842831 43790,6917.871999999999,95.437,541.362,538.112,0.0
49751.0,STARLINK-3229,PAYLOAD,2022-09-16 16:40:22,15.08834695,0.0001791,53.2172,90.3598,47.7992,312.3152,1.7929e-06,-2.6e-06,0.0,0 STARLINK-3229,1 49751U 21115AD  22259.69470122 -.00000260  00000-0  17929-5 0  9999,2 49751  53.2172  90.3598 0001791  47.7992 312.3152 15.08834695 43810,6917.897,95.438,541.001,538.523,0.0
49751.0,STARLINK-3229,PAYLOAD,2022-09-17 05:23:28,15.0882008,0.0001789,53.2179,87.9818,47.238,312.8762,-7.0857e-05,-1.415e-05,0.0,0 STARLINK-3229,1 49751U 21115AD  22260.22463544 -.00001415  00000-0 -70857-4 0  9992,2 49751  53.2179  87.9818 0001789  47.2380 312.8762 15.08820080 45005,6917.941,95.439,541.044,538.569,0.0
49751.0,STARLINK-3229,PAYLOAD,2022-09-17 11:45:01,15.08821997,0.0001805,53.2177,86.7913,44.0001,316.1134,-6.147e-05,-1.266e-05,0.0,0 STARLINK-3229,1 49751U 21115AD  22260.48959645 -.00001266  00000-0 -61470-4 0  9997,2 49751  53.2177  86.7913 0001805  44.0001 316.1134 15.08821997 43938,6917.935,95.439,541.049,538.552,0.0
49751.0,STARLINK-3229,PAYLOAD,2022-09-17 19:41:56,15.08838055,0.0001592,53.2179,85.3048,42.5922,317.5193,-0.00016132,-2.854e-05,0.0,0 STARLINK-3229,1 49751U 21115AD  22260.82079332 -.00002854  00000-0 -16132-3 0  9999,2 49751  53.2179  85.3048 0001592  42.5922 317.5193 15.08838055 43980,6917.886,95.438,540.8530000000002,538.65,0.0
49751.0,STARLINK-3229,PAYLOAD,2022-09-18 13:11:11,15.08830427,0.0001786,53.2179,82.0337,50.1184,309.9965,6.539399999999999e-05,7.53e-06,0.0,0 STARLINK-3229,1 49751U 21115AD  22261.54943477  .00000753  00000-0  65394-4 0  9998,2 49751  53.2179  82.0337 0001786  50.1184 309.9965 15.08830427 44095,6917.91,95.438,541.01,538.539,0.0
49751.0,STARLINK-3229,PAYLOAD,2022-09-18 21:08:06,15.08833129,0.0001774999999999,53.2176,80.5465,51.7347,308.3805,0.00011876,1.602e-05,0.0,0 STARLINK-3229,1 49751U 21115AD  22261.88063363  .00001602  00000-0  11876-3 0  9991,2 49751  53.2176  80.5465 0001775  51.7347 308.3805 15.08833129 44147,6917.901,95.438,540.994,538.538,0.0
49751.0,STARLINK-3229,PAYLOAD,2022-09-19 11:26:34,15.08837676,0.0001794,53.2178,77.8704,52.0433,308.0721,0.00020559,2.985e-05,0.0,0 STARLINK-3229,1 49751U 21115AD  22262.47679094  .00002985  00000-0  20559-3 0  9994,2 49751  53.2178  77.8704 0001794  52.0433 308.0721 15.08837676 44230,6917.887,95.438,540.994,538.511,0.0
49751.0,STARLINK-3229,PAYLOAD,2022-09-19 16:12:43,15.08843324,0.0001841,53.2181,76.9786,52.6823,307.4337,0.00021745,3.175e-05,0.0,0 STARLINK-3229,1 49751U 21115AD  22262.67550752  .00003175  00000-0  21745-3 0  9995,2 49751  53.2181  76.9786 0001841  52.6823 307.4337 15.08843324 45375,6917.87,95.437,541.009,538.462,0.0
49751.0,STARLINK-3229,PAYLOAD,2022-09-20 11:17:21,15.08841439,0.0001855,53.2183,73.4103,53.0943,307.0219,8.2183e-05,1.02e-05,0.0,0 STARLINK-3229,1 49751U 21115AD  22263.47039348  .00001020  00000-0  82183-4 0  9998,2 49751  53.2183  73.4103 0001855  53.0943 307.0219 15.08841439 45498,6917.876,95.437,541.024,538.4580000000002,0.0
49751.0,STARLINK-3229,PAYLOAD,2022-09-20 19:14:17,15.08849085,0.0001948,53.2186,71.9238,53.746,306.3711,0.00010141,1.327e-05,0.0,0 STARLINK-3229,1 49751U 21115AD  22263.80158751  .00001327  00000-0  10141-3 0  9999,2 49751  53.2186  71.9238 0001948  53.7460 306.3711 15.08849085 45547,6917.853,95.437,541.065,538.37,0.0
49751.0,STARLINK-3229,PAYLOAD,2022-09-21 17:29:40,15.08847697,0.0001995,53.2182,67.7607,54.8576,305.2603,-2.1494e-06,-3.22e-06,0.0,0 STARLINK-3229,1 49751U 21115AD  22264.72894589 -.00000322  00000-0 -21494-5 0  9998,2 49751  53.2182  67.7607 0001995  54.8576 305.2603 15.08847697 44575,6917.857,95.437,541.102,538.342,0.0
49751.0,STARLINK-3229,PAYLOAD,2022-09-22 14:09:41,15.08842605,0.0002000999999999,53.2182,63.8944,57.6851,302.4334,2.2685e-05,7.3e-07,0.0,0 STARLINK-3229,1 49751U 21115AD  22265.59006663  .00000073  00000-0  22685-4 0  9995,2 49751  53.2182  63.8944 0002001  57.6851 302.4334 15.08842605 44701,6917.871999999999,95.437,541.122,538.3530000000002,0.0
49751.0,STARLINK-3229,PAYLOAD,2022-09-22 17:20:28,15.08840928,0.0002034,53.2181,63.2998,57.2578,302.861,5.201900000000002e-06,-2.05e-06,0.0,0 STARLINK-3229,1 49751U 21115AD  22265.72254791 -.00000205  00000-0  52019-5 0  9990,2 49751  53.2181  63.2998 0002034  57.2578 302.8610 15.08840928 45833,6917.878000000002,95.437,541.15,538.335,0.0
49751.0,STARLINK-3229,PAYLOAD,2022-09-23 09:14:19,15.08837346,0.0001983,53.2181,60.3266,54.8108,305.307,2.743e-05,1.48e-06,0.0,0 STARLINK-3229,1 49751U 21115AD  22266.38494854  .00000148  00000-0  27430-4 0  9992,2 49751  53.2181  60.3266 0001983  54.8108 305.3070 15.08837346 44829,6917.889,95.438,541.125,538.382,0.0
49751.0,STARLINK-3229,PAYLOAD,2022-09-23 17:11:15,15.08829668,0.0001925,53.2179,58.8401,43.64100000000001,316.4734,-2.5161e-05,-6.88e-06,0.0,0 STARLINK-3229,1 49751U 21115AD  22266.71615612 -.00000688  00000-0 -25161-4 0  9996,2 49751  53.2179  58.8401 0001925  43.6410 316.4734 15.08829668 44870,6917.9119999999975,95.438,541.109,538.445,0.0
49751.0,STARLINK-3229,PAYLOAD,2022-09-24 02:43:33,15.0885533,0.0001976,53.2178,57.056,41.4527,318.6615,-0.0002575,-4.386e-05,0.0,0 STARLINK-3229,1 49751U 21115AD  22267.11358636 -.00004386  00000-0 -25750-3 0  9993,2 49751  53.2178  57.0560 0001976  41.4527 318.6615 15.08855330 46045,6917.834,95.437,541.065,538.332,0.0
49751.0,STARLINK-3229,PAYLOAD,2022-09-24 13:51:16,15.08836124,0.0001779,53.2178,54.9744,45.0216,315.092,0.00011699,1.574e-05,0.0,0 STARLINK-3229,1 49751U 21115AD  22267.57726956  .00001574  00000-0  11699-3 0  9998,2 49751  53.2178  54.9744 0001779  45.0216 315.0920 15.08836124 46119,6917.892,95.438,540.988,538.5269999999998,0.0
49751.0,STARLINK-3229,PAYLOAD,2022-09-24 15:26:39,15.08837968,0.00018,53.2179,54.6771,45.2449,314.8689,0.00012551,1.7100000000000002e-05,0.0,0 STARLINK-3229,1 49751U 21115AD  22267.64350844  .00001710  00000-0  12551-3 0  9995,2 49751  53.2179  54.6771 0001800  45.2449 314.8689 15.08837968 45016,6917.887,95.438,540.997,538.506,0.0
49751.0,STARLINK-3229,PAYLOAD,2022-09-25 16:52:49,15.08839255,0.0002025,53.218,49.9162,46.8542,313.2619,0.00015817,2.23e-05,0.0,0 STARLINK-3229,1 49751U 21115AD  22268.70334988  .00002230  00000-0  15817-3 0  9990,2 49751  53.2180  49.9162 0002025  46.8542 313.2619 15.08839255 46287,6917.8830000000025,95.438,541.149,538.347,0.0
